NORAD_CAT_ID,OBJECT_NAME,OBJECT_TYPE,EPOCH,MEAN_MOTION,ECCENTRICITY,INCLINATION,RA_OF_ASC_NODE,ARG_OF_PERICENTER,MEAN_ANOMALY,BSTAR,MEAN_MOTION_DOT,MEAN_MOTION_DDOT,TLE_LINE0,TLE_LINE1,TLE_LINE2,SEMIMAJOR_AXIS,PERIOD,APOGEE,PERIGEE,DECAYED
52876.0,STARLINK-4200,PAYLOAD,2024-02-11 15:14:48,15.0883153,0.0001615,53.2167,172.6691,83.1681,276.9494,0.00030175,4.517e-05,0.0,0 STARLINK-4200,1 52876U 22062AY  24042.63528357  .00004517  00000-0  30175-3 0  9997,2 52876  53.2167 172.6691 0001615  83.1681 276.9494 15.08831530 91775,6917.906,95.438,540.889,538.654,0.0
52876.0,STARLINK-4200,PAYLOAD,2024-02-12 13:30:12,15.08840424,0.0001626,53.2181,168.5087,105.0342,255.083,8.3738e-05,1.045e-05,0.0,0 STARLINK-4200,1 52876U 22062AY  24043.56264336  .00001045  00000-0  83738-4 0  9991,2 52876  53.2181 168.5087 0001626 105.0342 255.0830 15.08840424 91914,6917.879,95.438,540.869,538.619,0.0
52876.0,STARLINK-4200,PAYLOAD,2024-02-13 11:45:37,15.08835108,0.0001703,53.2172,164.3498,118.6541,241.4623,-0.00011182,-2.067e-05,0.0,0 STARLINK-4200,1 52876U 22062AY  24044.49001591 -.00002067  00000-0 -11182-3 0  9996,2 52876  53.2172 164.3498 0001703 118.6541 241.4623 15.08835108 92543,6917.895,95.438,540.938,538.582,0.0
52876.0,STARLINK-4200,PAYLOAD,2024-02-13 14:56:23,15.0884328,0.0001407,53.2167,163.7526,104.4625,255.6523,-3.6859e-05,-8.75e-06,0.0,0 STARLINK-4200,1 52876U 22062AY  24044.62248936 -.00000875  00000-0 -36859-4 0  9991,2 52876  53.2167 163.7526 0001407 104.4625 255.6523 15.08843280 92073,6917.87,95.437,540.709,538.762,0.0
52876.0,STARLINK-4200,PAYLOAD,2024-02-13 18:07:08,15.08848378,0.0001233,53.2155,163.1539,86.4118,273.7015,3.8975e-06,-2.26e-06,0.0,0 STARLINK-4200,1 52876U 22062AY  24044.75496523 -.00000226  00000-0  38975-5 0  9993,2 52876  53.2155 163.1539 0001233  86.4118 273.7015 15.08848378 92587,6917.855,95.437,540.573,538.867,0.0
52876.0,STARLINK-4200,PAYLOAD,2024-02-14 11:36:23,15.08840064,0.0001424,53.2155,159.884,106.1769,253.938,7.3324e-05,8.79e-06,0.0,0 STARLINK-4200,1 52876U 22062AY  24045.48360755  .00000879  00000-0  73324-4 0  9990,2 52876  53.2155 159.8840 0001424 106.1769 253.9380 15.08840064 92699,6917.88,95.438,540.73,538.76,0.0
52876.0,STARLINK-4200,PAYLOAD,2024-02-14 14:47:09,15.08846073,0.0001328,53.216,159.2919,97.5398,262.5745,0.00013353,1.838e-05,0.0,0 STARLINK-4200,1 52876U 22062AY  24045.61608282  .00001838  00000-0  13353-3 0  9996,2 52876  53.2160 159.2919 0001328  97.5398 262.5745 15.08846073 92226,6917.862,95.437,540.646,538.808,0.0
52876.0,STARLINK-4200,PAYLOAD,2024-02-15 11:27:11,15.08832449,9.74e-05,53.2164,155.4249,89.2555,270.8548,-1.2218e-06,-3.07e-06,0.0,0 STARLINK-4200,1 52876U 22062AY  24046.47722140 -.00000307  00000-0 -12218-5 0  9994,2 52876  53.2164 155.4249 0000974  89.2555 270.8548 15.08832449 92846,6917.903,95.438,540.442,539.095,0.0
52876.0,STARLINK-4200,PAYLOAD,2024-02-15 14:37:58,15.08836412,0.0001485,53.2162,154.8286,88.316,271.8002,7.7171e-06,-1.65e-06,0.0,0 STARLINK-4200,1 52876U 22062AY  24046.60969963 -.00000165  00000-0  77171-5 0  9995,2 52876  53.2162 154.8286 0001485  88.3160 271.8002 15.08836412 92376,6917.891,95.438,540.784,538.729,0.0
52876.0,STARLINK-4200,PAYLOAD,2024-02-16 00:10:16,15.08843853,0.0001523,53.2162,153.0445,86.6207,273.496,6.8124e-05,7.96e-06,0.0,0 STARLINK-4200,1 52876U 22062AY  24047.00713330  .00000796  00000-0  68124-4 0  9991,2 52876  53.2162 153.0445 0001523  86.6207 273.4960 15.08843853 92929,6917.869,95.437,540.787,538.68,0.0
52876.0,STARLINK-4200,PAYLOAD,2024-02-16 14:28:43,15.0886019,0.0001445,53.2169,150.3696,83.3863,276.7293,0.00011562,1.554e-05,0.0,0 STARLINK-4200,1 52876U 22062AY  24047.60328020  .00001554  00000-0  11562-3 0  9991,2 52876  53.2169 150.3696 0001445  83.3863 276.7293 15.08860190 92523,6917.819,95.436,540.683,538.684,0.0
52876.0,STARLINK-4200,PAYLOAD,2024-02-16 16:04:06,15.08862678,0.0001458,53.217,150.0718,82.2241,277.8916,0.00013014,1.785e-05,0.0,0 STARLINK-4200,1 52876U 22062AY  24047.66951765  .00001785  00000-0  13014-3 0  9995,2 52876  53.2170 150.0718 0001458  82.2241 277.8916 15.08862678 93022,6917.811,95.436,540.685,538.667,0.0
52876.0,STARLINK-4200,PAYLOAD,2024-02-17 00:01:03,15.08834882,0.0001192,53.2166,148.5861,86.5133,273.5995,8.3061e-05,1.034e-05,0.0,0 STARLINK-4200,1 52876U 22062AY  24048.00073577  .00001034  00000-0  83061-4 0  9997,2 52876  53.2166 148.5861 0001192  86.5133 273.5995 15.08834882 93071,6917.896,95.438,540.586,538.936,0.0
52876.0,STARLINK-4200,PAYLOAD,2024-02-17 12:44:09,15.08836631,0.0001697,53.2171,146.2047,94.1582,265.9604,5.5615e-05,5.97e-06,0.0,0 STARLINK-4200,1 52876U 22062AY  24048.53066002  .00000597  00000-0  55615-4 0  9997,2 52876  53.2171 146.2047 0001697  94.1582 265.9604 15.08836631 92661,6917.891,95.438,540.93,538.582,0.0
52876.0,STARLINK-4200,PAYLOAD,2024-02-18 12:34:55,15.08847497,0.0001368,53.2152,141.744,92.9395,267.1754,0.00012215,1.657e-05,0.0,0 STARLINK-4200,1 52876U 22062AY  24049.52425100  .00001657  00000-0  12215-3 0  9991,2 52876  53.2152 141.7440 0001368  92.9395 267.1754 15.08847497 93304,6917.857,95.437,540.669,538.776,0.0
52876.0,STARLINK-4200,PAYLOAD,2024-02-18 15:45:41,15.08858619,0.0001585,53.2169,141.1485,94.0376,266.0797,4.1606e-05,3.74e-06,0.0,0 STARLINK-4200,1 52876U 22062AY  24049.65672550  .00000374  00000-0  41606-4 0  9990,2 52876  53.2169 141.1485 0001585  94.0376 266.0797 15.08858619 93323,6917.823,95.436,540.785,538.592,0.0
52876.0,STARLINK-4200,PAYLOAD,2024-02-19 12:25:43,15.08837486,0.0001437,53.214,137.2833,99.5921,260.5234,0.00014024,1.945e-05,0.0,0 STARLINK-4200,1 52876U 22062AY  24050.51786031  .00001945  00000-0  14024-3 0  9995,2 52876  53.2140 137.2833 0001437  99.5921 260.5234 15.08837486 93455,6917.888,95.438,540.747,538.759,0.0
52876.0,STARLINK-4200,PAYLOAD,2024-02-20 12:16:30,15.0884061,0.0001442,53.217,132.8283,92.0505,268.0653,0.00012641,1.724e-05,0.0,0 STARLINK-4200,1 52876U 22062AY  24051.51146130  .00001724  00000-0  12641-3 0  9994,2 52876  53.2170 132.8283 0001442  92.0505 268.0653 15.08840610 93114,6917.879,95.438,540.741,538.746,0.0
52876.0,STARLINK-4200,PAYLOAD,2024-02-21 04:10:21,15.08840533,0.000146,53.2171,129.8551,98.0663,262.0495,0.00018593,2.672e-05,0.0,0 STARLINK-4200,1 52876U 22062AY  24052.17386121  .00002672  00000-0  18593-3 0  9998,2 52876  53.2171 129.8551 0001460  98.0663 262.0495 15.08840533 93707,6917.879,95.438,540.754,538.734,0.0
52876.0,STARLINK-4200,PAYLOAD,2024-02-21 12:07:17,15.08844704,0.0001678,53.217,128.3676,101.9906,258.1275,0.00015781,2.225e-05,0.0,0 STARLINK-4200,1 52876U 22062AY  24052.50505935  .00002225  00000-0  15781-3 0  9991,2 52876  53.2170 128.3676 0001678 101.9906 258.1275 15.08844704 93260,6917.866,95.437,540.892,538.57,0.0
52876.0,STARLINK-4200,PAYLOAD,2024-02-21 21:39:35,15.08844281,0.0001567,53.217,126.5834,97.4664,262.6507,5.4944e-05,5.87e-06,0.0,0 STARLINK-4200,1 52876U 22062AY  24052.90249863  .00000587  00000-0  54944-4 0  9994,2 52876  53.2170 126.5834 0001567  97.4664 262.6507 15.08844281 93328,6917.867,95.437,540.816,538.648,0.0
52876.0,STARLINK-4200,PAYLOAD,2024-02-22 11:58:05,15.08832974,0.0001761,53.2188,123.9089,100.9878,259.1312,1.0603e-05,-1.19e-06,0.0,0 STARLINK-4200,1 52876U 22062AY  24053.49867127 -.00000119  00000-0  10603-4 0  9994,2 52876  53.2188 123.9089 0001761 100.9878 259.1312 15.08832974 93908,6917.902,95.438,540.985,538.549,0.0
52876.0,STARLINK-4200,PAYLOAD,2024-02-23 11:48:50,15.0885175,0.0001508,53.2171,119.4445,93.3715,266.745,0.00014478,2.018e-05,0.0,0 STARLINK-4200,1 52876U 22062AY  24054.49225614  .00002018  00000-0  14478-3 0  9996,2 52876  53.2171 119.4445 0001508  93.3715 266.7450 15.08851750 94057,6917.844,95.437,540.753,538.666,0.0
52876.0,STARLINK-4200,PAYLOAD,2024-02-23 21:21:10,15.08845273,0.0001778,53.2169,117.6589,82.4721,277.6473,6.6706e-05,7.74e-06,0.0,0 STARLINK-4200,1 52876U 22062AY  24054.88969966  .00000774  00000-0  66706-4 0  9993,2 52876  53.2169 117.6589 0001778  82.4721 277.6473 15.08845273 94114,6917.864,95.437,540.959,538.499,0.0
52876.0,STARLINK-4200,PAYLOAD,2024-02-24 03:42:43,15.0883894,0.0001676,53.2169,116.4733,84.6377,275.4806,0.00014426,2.009e-05,0.0,0 STARLINK-4200,1 52876U 22062AY  24055.15466441  .00002009  00000-0  14426-3 0  9998,2 52876  53.2169 116.4733 0001676  84.6377 275.4806 15.08838940 94153,6917.884,95.438,540.908,538.589,0.0
52876.0,STARLINK-4200,PAYLOAD,2024-02-24 11:39:38,15.08840073,0.0001464,53.2166,114.9828,88.2981,271.8179,0.00011047,1.471e-05,0.0,0 STARLINK-4200,1 52876U 22062AY  24055.48586517  .00001471  00000-0  11047-3 0  9999,2 52876  53.2166 114.9828 0001464  88.2981 271.8179 15.08840073 93718,6917.88,95.438,540.758,538.732,0.0
52876.0,STARLINK-4200,PAYLOAD,2024-02-24 21:11:57,15.088441,0.0001494,53.2163,113.1992,85.5559,274.5604,0.00010312,1.354e-05,0.0,0 STARLINK-4200,1 52876U 22062AY  24055.88330291  .00001354  00000-0  10312-3 0  9993,2 52876  53.2163 113.1992 0001494  85.5559 274.5604 15.08844100 93776,6917.868,95.437,540.766,538.699,0.0
52876.0,STARLINK-4200,PAYLOAD,2024-02-25 13:05:48,15.0885559,0.0001542,53.2154,110.2241,89.4511,270.6658,0.00017851,2.555e-05,0.0,0 STARLINK-4200,1 52876U 22062AY  24056.54569511  .00002555  00000-0  17851-3 0  9995,2 52876  53.2154 110.2241 0001542  89.4511 270.6658 15.08855590 94363,6917.833,95.437,540.764,538.631,0.0
52876.0,STARLINK-4200,PAYLOAD,2024-02-25 21:02:43,15.08849431,0.0001382,53.215,108.7354,92.1924,267.9226,0.0001849,2.657e-05,0.0,0 STARLINK-4200,1 52876U 22062AY  24056.87689634  .00002657  00000-0  18490-3 0  9993,2 52876  53.2150 108.7354 0001382  92.1924 267.9226 15.08849431 93925,6917.852,95.437,540.673,538.761,0.0
52876.0,STARLINK-4200,PAYLOAD,2024-02-26 03:24:16,15.08844587,0.0001269,53.2147,107.5459,96.0049,264.1087,0.00031415,4.716e-05,0.0,0 STARLINK-4200,1 52876U 22062AY  24057.14185796  .00004716  00000-0  31415-3 0  9994,2 52876  53.2147 107.5459 0001269  96.0049 264.1087 15.08844587 94459,6917.866,95.437,540.609,538.853,0.0
